IRIDIUM 166             
1 43570U 18061B   25039.89207474  .00000447  00000+0  15258-3 0  9993
2 43570  86.3929 262.8528 0002396  83.7149 276.4320 14.34218560342695
IRIDIUM 158             
1 43571U 18061C   25039.86034998  .00000474  00000+0  16229-3 0  9999
2 43571  86.3929 262.8757 0002126  92.5282 267.6157 14.34215932342653
IRIDIUM 165             
1 43572U 18061D   25040.16479696  .00000102  00000+0  29204-4 0  9999
2 43572  86.3928 262.7853 0002033  81.4664 278.6762 14.34218106342725
IRIDIUM 155             
1 43573U 18061E   25039.84766827  .00000314  00000+0  10520-3 0  9993
2 43573  86.3925 262.8114 0002340  91.6908 268.4556 14.34218368342648
IRIDIUM 154             
1 43574U 18061F   25039.89840778  .00000192  00000+0  61327-4 0  9993
2 43574  86.3929 262.8995 0002004  85.5363 274.6062 14.34218726342700
IRIDIUM 163             
1 43575U 18061G   25039.67007348  .00000470  00000+0  16090-3 0  9993
2 43575  86.3928 262.9258 0002005  90.7234 269.4192 14.34219964342643
IRIDIUM 156             
1 43576U 18061H   25039.85400243 -.00000148  00000+0 -59918-4 0  9996
2 43576  86.3930 262.8556 0002372  87.6443 272.5024 14.34212558342664
IRIDIUM 164             
1 43577U 18061J   25039.69544249  .00000493  00000+0  16895-3 0  9991
2 43577  86.3928 262.9545 0002041  80.2756 279.8671 14.34215235342685
